{
  "type": "FeatureCollection",
  "features": [
    {
      "type": "Feature",
      "properties": {
        "norad_id": 33723,
        "name": "FENGYUN 1C DEB",
        "group": "fengyun-1c-debris",
        "lat": -74.87991382924005,
        "lon": -155.98430416923225,
        "alt_km": 856.5672881613409,
        "timestamp": "2025-12-06T05:40:09.531392+00:00",
        "meta_object_name": "FENGYUN 1C DEB",
        "meta_object_id": "1999-025DHL",
        "meta_epoch": "2025-12-05T04:47:11.023296",
        "meta_mean_motion": 14.13212904,
        "meta_eccentricity": 0.00983339,
        "meta_inclination": 99.1558,
        "meta_ra_of_asc_node": 59.6021,
        "meta_arg_of_pericenter": 352.1241,
        "meta_mean_anomaly": 35.054,
        "meta_ephemeris_type": 0,
        "meta_classification_type": "U",
        "meta_norad_cat_id": 33723,
        "meta_element_set_no": 999,
        "meta_rev_at_epoch": 63517,
        "meta_bstar": 0.0034403001,
        "meta_mean_motion_dot": 6.703e-05,
        "meta_mean_motion_ddot": 0,
        "tle_line1": "1 33723U 99025DHL 25339.19943314  .00006703  00000+0  34403-2 0  9990",
        "tle_line2": "2 33723  99.1558  59.6021 0098333 352.1241  35.0540 14.13212904635170"
      },
      "geometry": {
        "type": "Point",
        "coordinates": [
          -155.98430416923225,
          -74.87991382924005
        ]
      }
    },
    {
      "type": "Feature",
      "properties": {
        "norad_id": 33724,
        "name": "FENGYUN 1C DEB",
        "group": "fengyun-1c-debris",
        "lat": -23.61509957691479,
        "lon": 166.93288723411837,
        "alt_km": 812.6835661303003,
        "timestamp": "2025-12-06T05:40:09.531429+00:00",
        "meta_object_name": "FENGYUN 1C DEB",
        "meta_object_id": "1999-025DHM",
        "meta_epoch": "2025-12-01T18:59:47.545728",
        "meta_mean_motion": 14.19612162,
        "meta_eccentricity": 0.00269319,
        "meta_inclination": 98.6044,
        "meta_ra_of_asc_node": 346.4099,
        "meta_arg_of_pericenter": 213.4232,
        "meta_mean_anomaly": 328.0159,
        "meta_ephemeris_type": 0,
        "meta_classification_type": "U",
        "meta_norad_cat_id": 33724,
        "meta_element_set_no": 999,
        "meta_rev_at_epoch": 93806,
        "meta_bstar": 0.00047527563,
        "meta_mean_motion_dot": 9.64e-06,
        "meta_mean_motion_ddot": 0,
        "tle_line1": "1 33724U 99025DHM 25335.79152252  .00000964  00000+0  47528-3 0  9992",
        "tle_line2": "2 33724  98.6044 346.4099 0026931 213.4232 328.0159 14.19612162938062"
      },
      "geometry": {
        "type": "Point",
        "coordinates": [
          166.93288723411837,
          -23.61509957691479
        ]
      }
    },
    {
      "type": "Feature",
      "properties": {
        "norad_id": 33726,
        "name": "FENGYUN 1C DEB",
        "group": "fengyun-1c-debris",
        "lat": -42.69529968949047,
        "lon": 112.71616580960983,
        "alt_km": 855.580686618131,
        "timestamp": "2025-12-06T05:40:09.531445+00:00",
        "meta_object_name": "FENGYUN 1C DEB",
        "meta_object_id": "1999-025DHP",
        "meta_epoch": "2025-12-02T15:21:09.344736",
        "meta_mean_motion": 14.14283655,
        "meta_eccentricity": 0.01932435,
        "meta_inclination": 98.6386,
        "meta_ra_of_asc_node": 101.1732,
        "meta_arg_of_pericenter": 59.9303,
        "meta_mean_anomaly": 317.8672,
        "meta_ephemeris_type": 0,
        "meta_classification_type": "U",
        "meta_norad_cat_id": 33726,
        "meta_element_set_no": 999,
        "meta_rev_at_epoch": 91789,
        "meta_bstar": 0.00041689191,
        "meta_mean_motion_dot": 9.11e-06,
        "meta_mean_motion_ddot": 0,
        "tle_line1": "1 33726U 99025DHP 25336.63969149  .00000911  00000+0  41689-3 0  9993",
        "tle_line2": "2 33726  98.6386 101.1732 0193243  59.9303 317.8672 14.14283655917896"
      },
      "geometry": {
        "type": "Point",
        "coordinates": [
          112.71616580960983,
          -42.69529968949047
        ]
      }
    },
    {
      "type": "Feature",
      "properties": {
        "norad_id": 33728,
        "name": "FENGYUN 1C DEB",
        "group": "fengyun-1c-debris",
        "lat": -51.48039375660963,
        "lon": -156.25240613740593,
        "alt_km": 494.4574210840128,
        "timestamp": "2025-12-06T05:40:09.531458+00:00",
        "meta_object_name": "FENGYUN 1C DEB",
        "meta_object_id": "1999-025DHR",
        "meta_epoch": "2025-12-03T02:36:27.776448",
        "meta_mean_motion": 14.9242061,
        "meta_eccentricity": 0.01477094,
        "meta_inclination": 98.9821,
        "meta_ra_of_asc_node": 31.6441,
        "meta_arg_of_pericenter": 246.0941,
        "meta_mean_anomaly": 112.4742,
        "meta_ephemeris_type": 0,
        "meta_classification_type": "U",
        "meta_norad_cat_id": 33728,
        "meta_element_set_no": 999,
        "meta_rev_at_epoch": 98156,
        "meta_bstar": 0.00081217474,
        "meta_mean_motion_dot": 0.00010213,
        "meta_mean_motion_ddot": 0,
        "tle_line1": "1 33728U 99025DHR 25337.10865482  .00010213  00000+0  81217-3 0  9990",
        "tle_line2": "2 33728  98.9821  31.6441 0147709 246.0941 112.4742 14.92420610981564"
      },
      "geometry": {
        "type": "Point",
        "coordinates": [
          -156.25240613740593,
          -51.48039375660963
        ]
      }
    },
    {
      "type": "Feature",
      "properties": {
        "norad_id": 33730,
        "name": "FENGYUN 1C DEB",
        "group": "fengyun-1c-debris",
        "lat": 71.70807530390334,
        "lon": -113.79384479440169,
        "alt_km": 668.0042688992089,
        "timestamp": "2025-12-06T05:40:09.531468+00:00",
        "meta_object_name": "FENGYUN 1C DEB",
        "meta_object_id": "1999-025DHT",
        "meta_epoch": "2025-12-03T09:54:11.246688",
        "meta_mean_motion": 14.63205109,
        "meta_eccentricity": 0.00401027,
        "meta_inclination": 99.0564,
        "meta_ra_of_asc_node": 34.2592,
        "meta_arg_of_pericenter": 40.0931,
        "meta_mean_anomaly": 320.3216,
        "meta_ephemeris_type": 0,
        "meta_classification_type": "U",
        "meta_norad_cat_id": 33730,
        "meta_element_set_no": 999,
        "meta_rev_at_epoch": 95543,
        "meta_bstar": 0.0021836397,
        "meta_mean_motion_dot": 0.00011334,
        "meta_mean_motion_ddot": 0,
        "tle_line1": "1 33730U 99025DHT 25337.41263017  .00011334  00000+0  21836-2 0  9998",
        "tle_line2": "2 33730  99.0564  34.2592 0040102  40.0931 320.3216 14.63205109955434"
      },
      "geometry": {
        "type": "Point",
        "coordinates": [
          -113.79384479440169,
          71.70807530390334
        ]
      }
    },
    {
      "type": "Feature",
      "properties": {
        "norad_id": 33731,
        "name": "FENGYUN 1C DEB",
        "group": "fengyun-1c-debris",
        "lat": 53.349969398941305,
        "lon": -164.77998024668017,
        "alt_km": 845.8964253380018,
        "timestamp": "2025-12-06T05:40:09.531479+00:00",
        "meta_object_name": "FENGYUN 1C DEB",
        "meta_object_id": "1999-025DHU",
        "meta_epoch": "2025-11-28T07:46:14.335392",
        "meta_mean_motion": 13.95266632,
        "meta_eccentricity": 0.01296296,
        "meta_inclination": 99.4454,
        "meta_ra_of_asc_node": 354.1889,
        "meta_arg_of_pericenter": 95.0981,
        "meta_mean_anomaly": 266.4989,
        "meta_ephemeris_type": 0,
        "meta_classification_type": "U",
        "meta_norad_cat_id": 33731,
        "meta_element_set_no": 999,
        "meta_rev_at_epoch": 90248,
        "meta_bstar": 0.00078625858,
        "meta_mean_motion_dot": 1.095e-05,
        "meta_mean_motion_ddot": 0,
        "tle_line1": "1 33731U 99025DHU 25332.32377703  .00001095  00000+0  78626-3 0  9995",
        "tle_line2": "2 33731  99.4454 354.1889 0129629  95.0981 266.4989 13.95266632902483"
      },
      "geometry": {
        "type": "Point",
        "coordinates": [
          -164.77998024668017,
          53.349969398941305
        ]
      }
    },
    {
      "type": "Feature",
      "properties": {
        "norad_id": 33733,
        "name": "FENGYUN 1C DEB",
        "group": "fengyun-1c-debris",
        "lat": -9.847379474692938,
        "lon": 66.85389091681418,
        "alt_km": 848.6100075200657,
        "timestamp": "2025-12-06T05:40:09.531489+00:00",
        "meta_object_name": "FENGYUN 1C DEB",
        "meta_object_id": "1999-025DHW",
        "meta_epoch": "2025-12-01T05:07:55.247232",
        "meta_mean_motion": 14.3062472,
        "meta_eccentricity": 0.0081329,
        "meta_inclination": 99.0999,
        "meta_ra_of_asc_node": 60.0061,
        "meta_arg_of_pericenter": 202.8537,
        "meta_mean_anomaly": 213.8436,
        "meta_ephemeris_type": 0,
        "meta_classification_type": "U",
        "meta_norad_cat_id": 33733,
        "meta_element_set_no": 999,
        "meta_rev_at_epoch": 90283,
        "meta_bstar": 0.0047064,
        "meta_mean_motion_dot": 0.00012718,
        "meta_mean_motion_ddot": 0,
        "tle_line1": "1 33733U 99025DHW 25335.21383388  .00012718  00000+0  47064-2 0  9999",
        "tle_line2": "2 33733  99.0999  60.0061 0081329 202.8537 213.8436 14.30624720902837"
      },
      "geometry": {
        "type": "Point",
        "coordinates": [
          66.85389091681418,
          -9.847379474692938
        ]
      }
    }
  ]
}